[{"OBJECT_NAME":"EKRAN 2","OBJECT_ID":"1977-092A","EPOCH":"2026-03-04T15:55:06.460608","MEAN_MOTION":1.00279027,"ECCENTRICITY":0.0042699,"INCLINATION":4.5051,"RA_OF_ASC_NODE":276.0645,"ARG_OF_PERICENTER":16.5627,"MEAN_ANOMALY":207.6482,"EPHEMERIS_TYPE":0,"CLASSIFICATION_TYPE":"U","NORAD_CAT_ID":10365,"ELEMENT_SET_NO":999,"REV_AT_EPOCH":13380,"BSTAR":0,"MEAN_MOTION_DOT":-3.14e-6,"MEAN_MOTION_DDOT":0},{"OBJECT_NAME":"METEOSAT-1","OBJECT_ID":"1977-108A","EPOCH":"2026-03-04T17:40:58.484928","MEAN_MOTION":1.00290425,"ECCENTRICITY":0.0010726,"INCLINATION":5.339,"RA_OF_ASC_NODE":282.33,"ARG_OF_PERICENTER":84.4603,"MEAN_ANOMALY":73.4853,"EPHEMERIS_TYPE":0,"CLASSIFICATION_TYPE":"U","NORAD_CAT_ID":10489,"ELEMENT_SET_NO":999,"REV_AT_EPOCH":13616,"BSTAR":0,"MEAN_MOTION_DOT":7.0e-7,"MEAN_MOTION_DDOT":0},{"OBJECT_NAME":"INTELSAT 4A-F3","OBJECT_ID":"1978-002A","EPOCH":"2026-03-04T20:23:25.450368","MEAN_MOTION":0.99909645,"ECCENTRICITY":0.0004799,"INCLINATION":9.1894,"RA_OF_ASC_NODE":313.344,"ARG_OF_PERICENTER":314.2018,"MEAN_ANOMALY":228.7823,"EPHEMERIS_TYPE":0,"CLASSIFICATION_TYPE":"U","NORAD_CAT_ID":10557,"ELEMENT_SET_NO":999,"REV_AT_EPOCH":4770,"BSTAR":0,"MEAN_MOTION_DOT":8.8e-7,"MEAN_MOTION_DDOT":0},{"OBJECT_NAME":"INTELSAT 4A-F6","OBJECT_ID":"1978-035A","EPOCH":"2026-03-04T13:23:38.602752","MEAN_MOTION":1.00293974,"ECCENTRICITY":0.0008722,"INCLINATION":8.9723,"RA_OF_ASC_NODE":312.368,"ARG_OF_PERICENTER":318.9751,"MEAN_ANOMALY":231.2606,"EPHEMERIS_TYPE":0,"CLASSIFICATION_TYPE":"U","NORAD_CAT_ID":10778,"ELEMENT_SET_NO":999,"REV_AT_EPOCH":12111,"BSTAR":0,"MEAN_MOTION_DOT":-3.02e-6,"MEAN_MOTION_DDOT":0},{"OBJECT_NAME":"OPS 8790","OBJECT_ID":"1978-038A","EPOCH":"2026-03-04T17:49:42.308256","MEAN_MOTION":1.00477344,"ECCENTRICITY":0.0017717,"INCLINATION":3.7523,"RA_OF_ASC_NODE":322.9858,"ARG_OF_PERICENTER":303.5782,"MEAN_ANOMALY":182.7373,"EPHEMERIS_TYPE":0,"CLASSIFICATION_TYPE":"U","NORAD_CAT_ID":10787,"ELEMENT_SET_NO":999,"REV_AT_EPOCH":2421,"BSTAR":0,"MEAN_MOTION_DOT":1.21e-6,"MEAN_MOTION_DDOT":0},{"OBJECT_NAME":"YURI (BS)","OBJECT_ID":"1978-039A","EPOCH":"2026-03-04T15:39:19.291104","MEAN_MOTION":1.00198527,"ECCENTRICITY":0.0019401,"INCLINATION":5.7327,"RA_OF_ASC_NODE":285.035,"ARG_OF_PERICENTER":331.4504,"MEAN_ANOMALY":210.8864,"EPHEMERIS_TYPE":0,"CLASSIFICATION_TYPE":"U","NORAD_CAT_ID":10792,"ELEMENT_SET_NO":999,"REV_AT_EPOCH":11771,"BSTAR":0,"MEAN_MOTION_DOT":-4.1e-7,"MEAN_MOTION_DDOT":0},{"OBJECT_NAME":"RADUGA 4","OBJECT_ID":"1978-073A","EPOCH":"2026-03-04T20:11:20.716800","MEAN_MOTION":1.0024938,"ECCENTRICITY":0.0011838,"INCLINATION":5.0523,"RA_OF_ASC_NODE":279.8377,"ARG_OF_PERICENTER":33.1946,"MEAN_ANOMALY":261.6302,"EPHEMERIS_TYPE":0,"CLASSIFICATION_TYPE":"U","NORAD_CAT_ID":10987,"ELEMENT_SET_NO":999,"REV_AT_EPOCH":11855,"BSTAR":0,"MEAN_MOTION_DOT":-3.6e-6,"MEAN_MOTION_DDOT":0},{"OBJECT_NAME":"EKRAN 3","OBJECT_ID":"1979-015A","EPOCH":"2026-03-04T15:10:44.831712","MEAN_MOTION":1.00322075,"ECCENTRICITY":0.004195,"INCLINATION":5.3833,"RA_OF_ASC_NODE":282.7619,"ARG_OF_PERICENTER":7.9855,"MEAN_ANOMALY":162.9824,"EPHEMERIS_TYPE":0,"CLASSIFICATION_TYPE":"U","NORAD_CAT_ID":11273,"ELEMENT_SET_NO":999,"REV_AT_EPOCH":13396,"BSTAR":0,"MEAN_MOTION_DOT":-8.0e-8,"MEAN_MOTION_DDOT":0},{"OBJECT_NAME":"RADUGA 5","OBJECT_ID":"1979-035A","EPOCH":"2026-03-04T15:15:05.122944","MEAN_MOTION":1.00296567,"ECCENTRICITY":0.0002624,"INCLINATION":5.5556,"RA_OF_ASC_NODE":283.5439,"ARG_OF_PERICENTER":226.5062,"MEAN_ANOMALY":316.2146,"EPHEMERIS_TYPE":0,"CLASSIFICATION_TYPE":"U","NORAD_CAT_ID":11343,"ELEMENT_SET_NO":999,"REV_AT_EPOCH":12831,"BSTAR":0,"MEAN_MOTION_DOT":-1.1e-6,"MEAN_MOTION_DDOT":0},{"OBJECT_NAME":"GORIZONT 2","OBJECT_ID":"1979-062A","EPOCH":"2026-03-04T18:45:15.696288","MEAN_MOTION":1.00236763,"ECCENTRICITY":0.0006831,"INCLINATION":5.9941,"RA_OF_ASC_NODE":286.9239,"ARG_OF_PERICENTER":0.0624,"MEAN_ANOMALY":234,"EPHEMERIS_TYPE":0,"CLASSIFICATION_TYPE":"U","NORAD_CAT_ID":11440,"ELEMENT_SET_NO":999,"REV_AT_EPOCH":13697,"BSTAR":0,"MEAN_MOTION_DOT":-1.17e-6,"MEAN_MOTION_DDOT":0},{"OBJECT_NAME":"WESTAR 3","OBJECT_ID":"1979-072A","EPOCH":"2026-03-04T01:52:04.855872","MEAN_MOTION":0.99953222,"ECCENTRICITY":0.00043471,"INCLINATION":10.4259,"RA_OF_ASC_NODE":321.8134,"ARG_OF_PERICENTER":338.7258,"MEAN_ANOMALY":211.1855,"EPHEMERIS_TYPE":0,"CLASSIFICATION_TYPE":"U","NORAD_CAT_ID":11484,"ELEMENT_SET_NO":999,"REV_AT_EPOCH":13946,"BSTAR":0,"MEAN_MOTION_DOT":-2.94e-6,"MEAN_MOTION_DDOT":0},{"OBJECT_NAME":"EKRAN 4","OBJECT_ID":"1979-087A","EPOCH":"2026-03-04T19:48:04.079808","MEAN_MOTION":1.00304612,"ECCENTRICITY":0.0003373,"INCLINATION":5.8538,"RA_OF_ASC_NODE":285.8383,"ARG_OF_PERICENTER":120.97,"MEAN_ANOMALY":144.4897,"EPHEMERIS_TYPE":0,"CLASSIFICATION_TYPE":"U","NORAD_CAT_ID":11561,"ELEMENT_SET_NO":999,"REV_AT_EPOCH":4632,"BSTAR":0,"MEAN_MOTION_DOT":-2.65e-6,"MEAN_MOTION_DDOT":0},{"OBJECT_NAME":"SL-12 R/B(2)","OBJECT_ID":"1975-123F","EPOCH":"2026-03-04T13:16:38.590752","MEAN_MOTION":1.00479019,"ECCENTRICITY":0.0012933,"INCLINATION":2.8145,"RA_OF_ASC_NODE":265.9092,"ARG_OF_PERICENTER":214.2177,"MEAN_ANOMALY":40.3125,"EPHEMERIS_TYPE":0,"CLASSIFICATION_TYPE":"U","NORAD_CAT_ID":11568,"ELEMENT_SET_NO":999,"REV_AT_EPOCH":12094,"BSTAR":0,"MEAN_MOTION_DOT":-8.9e-7,"MEAN_MOTION_DDOT":0},{"OBJECT_NAME":"EKRAN 2 DEB","OBJECT_ID":"1977-092H","EPOCH":"2026-03-04T19:19:25.047264","MEAN_MOTION":1.00323407,"ECCENTRICITY":0.0006985,"INCLINATION":4.4077,"RA_OF_ASC_NODE":275.4593,"ARG_OF_PERICENTER":286.9212,"MEAN_ANOMALY":276.9346,"EPHEMERIS_TYPE":0,"CLASSIFICATION_TYPE":"U","NORAD_CAT_ID":11581,"ELEMENT_SET_NO":999,"REV_AT_EPOCH":10331,"BSTAR":0,"MEAN_MOTION_DOT":1.35e-6,"MEAN_MOTION_DDOT":0},{"OBJECT_NAME":"GORIZONT 3","OBJECT_ID":"1979-105A","EPOCH":"2026-03-04T15:45:11.448864","MEAN_MOTION":1.00197571,"ECCENTRICITY":0.001076,"INCLINATION":6.1838,"RA_OF_ASC_NODE":288.7903,"ARG_OF_PERICENTER":271.2369,"MEAN_ANOMALY":281.3714,"EPHEMERIS_TYPE":0,"CLASSIFICATION_TYPE":"U","NORAD_CAT_ID":11648,"ELEMENT_SET_NO":999,"REV_AT_EPOCH":12143,"BSTAR":0,"MEAN_MOTION_DOT":-1.62e-6,"MEAN_MOTION_DDOT":0},{"OBJECT_NAME":"OPS 6393 (FLTSATCOM 3)","OBJECT_ID":"1980-004A","EPOCH":"2026-03-04T01:47:12.823008","MEAN_MOTION":1.00194606,"ECCENTRICITY":0.00210891,"INCLINATION":6.3864,"RA_OF_ASC_NODE":307.0985,"ARG_OF_PERICENTER":246.4475,"MEAN_ANOMALY":298.6835,"EPHEMERIS_TYPE":0,"CLASSIFICATION_TYPE":"U","NORAD_CAT_ID":11669,"ELEMENT_SET_NO":999,"REV_AT_EPOCH":16880,"BSTAR":0,"MEAN_MOTION_DOT":-3.06e-6,"MEAN_MOTION_DDOT":0},{"OBJECT_NAME":"SL-12 R/B(2)","OBJECT_ID":"1975-097F","EPOCH":"2026-03-04T07:36:38.768832","MEAN_MOTION":1.00094963,"ECCENTRICITY":0.00209192,"INCLINATION":2.6286,"RA_OF_ASC_NODE":263.5347,"ARG_OF_PERICENTER":222.614,"MEAN_ANOMALY":24.7321,"EPHEMERIS_TYPE":0,"CLASSIFICATION_TYPE":"U","NORAD_CAT_ID":11676,"ELEMENT_SET_NO":999,"REV_AT_EPOCH":11808,"BSTAR":0,"MEAN_MOTION_DOT":4.6e-7,"MEAN_MOTION_DDOT":0}]
