EKRAN 2                 
1 10365U 77092A   26063.66326922 -.00000314  00000+0  00000+0 0  9990
2 10365   4.5051 276.0645 0042699  16.5627 207.6482  1.00279027133801
METEOSAT-1              
1 10489U 77108A   26063.73678802  .00000070  00000+0  00000+0 0  9998
2 10489   5.3390 282.3300 0010726  84.4603  73.4853  1.00290425136163
INTELSAT 4A-F3          
1 10557U 78002A   26063.84960012  .00000088  00000+0  00000+0 0  9996
2 10557   9.1894 313.3440 0004799 314.2018 228.7823  0.99909645 47708
INTELSAT 4A-F6          
1 10778U 78035A   26063.55808568 -.00000302  00000+0  00000+0 0  9992
2 10778   8.9723 312.3680 0008722 318.9751 231.2606  1.00293974121111
OPS 8790                
1 10787U 78038A   26063.74285079  .00000121  00000+0  00000+0 0  9990
2 10787   3.7523 322.9858 0017717 303.5782 182.7373  1.00477344 24213
YURI (BS)               
1 10792U 78039A   26063.65230661 -.00000041  00000+0  00000+0 0  9996
2 10792   5.7327 285.0350 0019401 331.4504 210.8864  1.00198527117712
RADUGA 4                
1 10987U 78073A   26063.84121200 -.00000360  00000+0  00000+0 0  9993
2 10987   5.0523 279.8377 0011838  33.1946 261.6302  1.00249380118559
EKRAN 3                 
1 11273U 79015A   26063.63246333 -.00000008  00000+0  00000+0 0  9990
2 11273   5.3833 282.7619 0041950   7.9855 162.9824  1.00322075133960
RADUGA 5                
1 11343U 79035A   26063.63547596 -.00000110  00000+0  00000+0 0  9999
2 11343   5.5556 283.5439 0002624 226.5062 316.2146  1.00296567128315
GORIZONT 2              
1 11440U 79062A   26063.78143167 -.00000117  00000+0  00000+0 0  9996
2 11440   5.9941 286.9239 0006831   0.0624 234.0000  1.00236763136972
WESTAR 3                
1 11484U 79072A   26063.07783398 -.00000294  00000+0  00000+0 0  9999
2 11484  10.4259 321.8134 0004347 338.7258 211.1855  0.99953222139464
EKRAN 4                 
1 11561U 79087A   26063.82504722 -.00000265  00000+0  00000+0 0  9994
2 11561   5.8538 285.8383 0003373 120.9700 144.4897  1.00304612 46326
SL-12 R/B(2)            
1 11568U 75123F   26063.55322443 -.00000089  00000+0  00000+0 0  9990
2 11568   2.8145 265.9092 0012933 214.2177  40.3125  1.00479019120940
EKRAN 2 DEB             
1 11581U 77092H   26063.80515101  .00000135  00000+0  00000+0 0  9996
2 11581   4.4077 275.4593 0006985 286.9212 276.9346  1.00323407103318
GORIZONT 3              
1 11648U 79105A   26063.65638251 -.00000162  00000+0  00000+0 0  9993
2 11648   6.1838 288.7903 0010760 271.2369 281.3714  1.00197571121437
OPS 6393 (FLTSATCOM 3)  
1 11669U 80004A   26063.07445397 -.00000306  00000+0  00000+0 0  9999
2 11669   6.3864 307.0985 0021089 246.4475 298.6835  1.00194606168807
SL-12 R/B(2)            
1 11676U 75097F   26063.31711538  .00000046  00000+0  00000+0 0  9993
2 11676   2.6286 263.5347 0020919 222.6140  24.7321  1.00094963118084
